METEOR-M2 2             
1 44387U 19038A   21122.15763872 -.00000048  00000-0 -17689-5 0  9994
2 44387  98.6665  82.6461 0002270  52.3477 307.7913 14.23687609 94889
VDNH-80                 
1 44392U 19038G   21122.20693838  .00001277  00000-0  74490-4 0  9995
2 44392  97.5835  87.0283 0022635 110.0355  18.3014 15.13580900100596
D-STAR ONE (LIGHTSAT)   
1 44393U 19038H   21121.84657039  .00001624  00000-0  94014-4 0  9998
2 44393  97.5845  86.5496 0023094 111.5506 248.8190 15.13468577100738
AMGU-1 (AMURSAT)        
1 44394U 19038J   21121.86245354  .00001666  00000-0  96346-4 0  9990
2 44394  97.5818  86.5135 0022966 111.4632 248.9051 15.13461468100734
DOT-1                   
1 44399U 19038P   21121.85837560  .00001077  00000-0  65084-4 0  9991
2 44399  97.5865  86.0291 0025948 114.7667 245.6268 15.12583743100695
SOKRAT                  
1 44404U 19038U   21121.87653783  .00001634  00000-0  94980-4 0  9999
2 44404  97.5836  86.3247 0023343 113.1009 247.2686 15.13289870100725
LUCKY-7                 
1 44406U 19038W   21121.88862344  .00001165  00000-0  69570-4 0  9993
2 44406  97.5858  86.2552 0025841 107.9124 252.4928 15.12858366100709
D-STAR ONE (EXOCONNECT) 
1 44410U 19038AA  21121.86097057  .00002400  00000-0  13512-3 0  9994
2 44410  97.5812  86.5465 0023130 111.2039 249.1667 15.13992712100744
NARSSCUBE-2             
1 44415U 19022E   21121.75508585  .00001465  00000-0  60368-4 0  9995
2 44415  51.6430 302.9827 0011479  19.8070 340.3354 15.30938694 96990
KRAKSAT                 
1 44427U 98067QM  21122.19743000  .00018880  00000-0  19023-3 0  9996
2 44427  51.6391 175.3322 0004260  47.5194  56.1830 15.65427257104229
ENTRYSAT                
1 44429U 98067QP  21122.11852532  .00072842  00000-0  41217-3 0  9999
2 44429  51.6289 159.7991 0005213  37.1670 322.9691 15.78410141104427
NARSSCUBE-1             
1 44792U 98067QX  21121.53972902  .00024222  00000-0  25354-3 0  9994
2 44792  51.6356 189.0993 0003761  80.6053 279.5367 15.64286376 82212
DUCHIFAT-3              
1 44854U 19089C   21122.04722427  .00000820  00000-0  71976-4 0  9992
2 44854  36.9656  15.0587 0006645 123.5207 236.6141 14.99452306 76132
OPS-SAT                 
1 44878U 19092F   21121.80311196  .00001699  00000-0  90722-4 0  9997
2 44878  97.4749 305.9820 0013100 338.5120  21.5562 15.16420249 75767
FLORIPASAT-1            
1 44885U 19093G   21122.18021034  .00000468  00000-0  65229-4 0  9994
2 44885  97.9268 202.0234 0016186  91.6501 268.6578 14.82268169 73918
HUSKYSAT-1 (HO-107)     
1 45119U 19071J   21121.82240558  .00003224  00000-0  10283-3 0  9997
2 45119  51.6415 262.9470 0011823 120.7340 239.4809 15.35519083 70008
G-SAT                   
1 45597U 98067RK  21121.82715288  .00011831  00000-0  16808-3 0  9998
2 45597  51.6393 202.3044 0003117 149.5393 210.5781 15.56866005 57345
QUETZAL-1               
1 45598U 98067RL  21121.58112952  .00016038  00000-0  21437-3 0  9999
2 45598  51.6392 202.9082 0000575 189.6991 170.3990 15.58209529 57245
BY70-2                  
1 45857U 20042B   21122.23823088  .00001657  00000-0  24276-3 0  9992
2 45857  97.9841 198.4668 0011007  12.8011 347.3474 14.76907586 44725
SALSAT                  
1 46495U 20068K   21121.93862034  .00000160  00000-0  16289-4 0  9993
2 46495  97.6917  59.7193 0015115 225.4873 134.5115 15.03428657 32340
NETSAT-4                
1 46504U 20068U   21121.80274698  .00000208  00000-0  20484-4 0  9998
2 46504  97.6905  59.0640 0008403 289.8422  70.1896 15.02074708 32236
NETSAT-3                
1 46505U 20068V   21121.80829369  .00000416  00000-0  36345-4 0  9994
2 46505  97.6900  59.0434 0006621 295.2404  64.8134 15.02040741 32240
NETSAT-1                
1 46506U 20068W   21121.88042457  .00000556  00000-0  47062-4 0  9991
2 46506  97.6901  59.0905 0004855 294.3839  65.6864 15.02010141 32255
NETSAT-2                
1 46507U 20068X   21121.88328788  .00000575  00000-0  48518-4 0  9994
2 46507  97.6886  59.0911 0004281 290.2019  69.8731 15.01987588 32204
BY70-3                  
1 46839U 20079N   21122.18300170  .00003636  00000-0  11495-3 0  9997
2 46839  97.2417 196.9616 0007629  26.7083  54.1050 15.33400808 27118
SPOC                    
1 46921U 98067RR  21121.64211082  .00009073  00000-0  14701-3 0  9998
2 46921  51.6415 209.3231 0001810 283.9073  76.1716 15.53575360 27588
BOBCAT-1                
1 46922U 98067RS  21121.63776239  .00012498  00000-0  19023-3 0  9995
2 46922  51.6425 208.5569 0001875 300.2647  59.8158 15.54916055 27552
NEUTRON-1               
1 46923U 98067RT  21121.78257894  .00008905  00000-0  14504-3 0  9990
2 46923  51.6414 208.7591 0001942 300.5018  59.5780 15.53455680 27636
1998-067RU              
1 46924U 98067RU  21121.64079679  .00023736  00000-0  32079-3 0  9995
2 46924  51.6395 207.0585 0003266 336.2027  23.8814 15.57618626 27612
DESCENT                 
1 46927U 98067RX  21121.78680116  .00008407  00000-0  13748-3 0  9997
2 46927  51.6413 208.7850 0002342 319.4302  40.6514 15.53429824 27544
UVSQ-SAT                
1 47438U 21006AB  21122.15545607  .00001140  00000-0  68119-4 0  9991
2 47438  97.4910 184.2011 0011202 255.9712 104.0274 15.13041073 15056
SOMP2B                  
1 47445U 21006AJ  21121.76818759  .00001114  00000-0  66940-4 0  9997
2 47445  97.4883 183.7604 0010760 261.7697  98.2314 15.12886600 14993
WARP-01                 
1 47924U 98067SA  21121.66256780  .00011471  00000-0  20334-3 0  9992
2 47924  51.6417 212.4410 0005236 301.5041  58.5436 15.50732734  7539
RSP-01                  
1 47925U 98067SB  21121.65953175  .00009759  00000-0  17423-3 0  9995
2 47925  51.6422 212.4235 0001595 234.5703 125.5138 15.50731774  7510
TAUSAT-1                
1 47926U 98067SC  21121.52044917  .00011862  00000-0  20665-3 0  9997
2 47926  51.6422 212.9952 0002750 232.8905 127.1833 15.51194708  7488
TSURU                   
1 47927U 98067SD  21121.85372825  .00008814  00000-0  15856-3 0  9995
2 47927  51.6423 211.4707 0001636 230.6263 129.4582 15.50657705  7540
STARS-EC                
1 47928U 98067SE  21121.79100699  .00009319  00000-0  16751-3 0  9993
2 47928  51.6420 211.7991 0006009 305.0818  54.9607 15.50593938  7512
MAYA-2                  
1 47929U 98067SF  21121.65937863  .00008862  00000-0  15922-3 0  9991
2 47929  51.6424 212.4227 0001701 224.0663 136.0191 15.50686372  7479
HIROGARI (OPUSAT-II)    
1 47930U 98067SG  21121.78681527  .00012334  00000-0  21669-3 0  9994
2 47930  51.6421 211.7740 0001562 229.1161 130.9693 15.50914738  7531
GUARANISAT-1            
1 47931U 98067SH  21121.78785859  .00008791  00000-0  15792-3 0  9990
2 47931  51.6424 211.7812 0001735 223.3567 136.7286 15.50701753  7536
DIY-1 (ARDUIQUBE)       
1 47963U 21022AH  21121.68780023  .00002762  00000-0  18757-3 0  9995
2 47963  97.5609  24.8489 0021286 102.7544 257.6065 15.07025481  4855
